STARLINK-1736           
1 46585U 20070BF  26068.41871588  .00096585  00000+0  89725-3 0  9997
2 46585  53.0420 117.3157 0001115  98.6487 261.4655 15.66676236300313
STARLINK-11182 [DTC]    
1 60399U 24141B   26068.29904242 -.00002093  00000+0 -12425-4 0  9996
2 60399  53.1581  88.0403 0001601  65.3912 294.7273 15.69685857 91687
